[{"OBJECT_NAME":"STARLINK-6175","OBJECT_ID":"2023-083G","EPOCH":"2026-03-09T01:22:02.858592","MEAN_MOTION":15.02529146,"ECCENTRICITY":0.00013234,"INCLINATION":43.0041,"RA_OF_ASC_NODE":85.3496,"ARG_OF_PERICENTER":265.3763,"MEAN_ANOMALY":94.6929,"EPHEMERIS_TYPE":0,"CLASSIFICATION_TYPE":"U","NORAD_CAT_ID":56882,"ELEMENT_SET_NO":999,"REV_AT_EPOCH":15157,"BSTAR":-6.0965703e-5,"MEAN_MOTION_DOT":-1.027e-5,"MEAN_MOTION_DDOT":0},{"OBJECT_NAME":"ATLAS 28E DEB","OBJECT_ID":"1990-031G","EPOCH":"2026-03-09T13:30:42.820704","MEAN_MOTION":15.01077751,"ECCENTRICITY":0.00267601,"INCLINATION":90.3468,"RA_OF_ASC_NODE":293.9289,"ARG_OF_PERICENTER":41.2715,"MEAN_ANOMALY":319.0536,"EPHEMERIS_TYPE":0,"CLASSIFICATION_TYPE":"U","NORAD_CAT_ID":20575,"ELEMENT_SET_NO":999,"REV_AT_EPOCH":38014,"BSTAR":0.00040945673,"MEAN_MOTION_DOT":5.29e-5,"MEAN_MOTION_DDOT":0}]
